NORAD_CAT_ID,OBJECT_NAME,OBJECT_TYPE,EPOCH,MEAN_MOTION,ECCENTRICITY,INCLINATION,RA_OF_ASC_NODE,ARG_OF_PERICENTER,MEAN_ANOMALY,BSTAR,MEAN_MOTION_DOT,MEAN_MOTION_DDOT,TLE_LINE0,TLE_LINE1,TLE_LINE2,SEMIMAJOR_AXIS,PERIOD,APOGEE,PERIGEE,DECAYED
53617.0,STARLINK-4601,PAYLOAD,2023-02-11 18:37:07,15.08838226,0.0001165,53.2156,230.6204,83.0625,277.05,0.00010924,1.451e-05,0.0,0 STARLINK-4601,1 53617U 22104AF  23042.77577937  .00001451  00000-0  10924-3 0  9994,2 53617  53.2156 230.6204 0001165  83.0625 277.0500 15.08838226 25696,6917.886,95.438,540.557,538.945,0.0
53617.0,STARLINK-4601,PAYLOAD,2023-02-12 07:20:12,15.08847606,0.0001265,53.2155,228.2415,69.7266,290.3862,-2.3996e-05,-6.7e-06,0.0,0 STARLINK-4601,1 53617U 22104AF  23043.30569607 -.00000670  00000-0 -23996-4 0  9997,2 53617  53.2155 228.2415 0001265  69.7266 290.3862 15.08847606 26349,6917.857,95.437,540.597,538.847,0.0
53617.0,STARLINK-4601,PAYLOAD,2023-02-12 21:38:40,15.08849269,0.0001079,53.2159,225.5649,86.2446,273.8669,7.301e-05,8.75e-06,0.0,0 STARLINK-4601,1 53617U 22104AF  23043.90185262  .00000875  00000-0  73010-4 0  9991,2 53617  53.2159 225.5649 0001079  86.2446 273.8669 15.08849269 25863,6917.852,95.437,540.463,538.971,0.0
53617.0,STARLINK-4601,PAYLOAD,2023-02-13 11:57:09,15.08837533,0.0001243,53.2154,222.8886,87.3112,272.8023,6.2396e-05,7.05e-06,0.0,0 STARLINK-4601,1 53617U 22104AF  23044.49802100  .00000705  00000-0  62396-4 0  9990,2 53617  53.2154 222.8886 0001243  87.3112 272.8023 15.08837533 25950,6917.888,95.438,540.613,538.893,0.0
53617.0,STARLINK-4601,PAYLOAD,2023-02-14 11:47:55,15.08841894,0.0001044,53.2169,218.4293,91.0779,269.0333,9.4355e-05,1.214e-05,0.0,0 STARLINK-4601,1 53617U 22104AF  23045.49161657  .00001214  00000-0  94355-4 0  9992,2 53617  53.2169 218.4293 0001044  91.0779 269.0333 15.08841894 26676,6917.875,95.437,540.462,539.017,0.0
53617.0,STARLINK-4601,PAYLOAD,2023-02-14 18:09:27,15.0884531,9.99e-05,53.217,217.2399,89.8937,270.217,0.0001161,1.561e-05,0.0,0 STARLINK-4601,1 53617U 22104AF  23045.75657335  .00001561  00000-0  11610-3 0  9991,2 53617  53.2170 217.2399 0000999  89.8937 270.2170 15.08845310 26143,6917.864,95.437,540.42,539.038,0.0
53617.0,STARLINK-4601,PAYLOAD,2023-02-15 11:38:43,15.08835884,9.28e-05,53.2171,213.9693,92.7339,267.3759,5.8072e-05,6.37e-06,0.0,0 STARLINK-4601,1 53617U 22104AF  23046.48522073  .00000637  00000-0  58072-4 0  9999,2 53617  53.2171 213.9693 0000928  92.7339 267.3759 15.08835884 26252,6917.893,95.438,540.4,539.116,0.0
53617.0,STARLINK-4601,PAYLOAD,2023-02-15 21:11:01,15.08848487,0.0001077,53.2156,212.1835,98.031,262.0804,0.00013962,1.935e-05,0.0,0 STARLINK-4601,1 53617U 22104AF  23046.88265072  .00001935  00000-0  13962-3 0  9996,2 53617  53.2156 212.1835 0001077  98.0310 262.0804 15.08848487 26311,6917.854,95.437,540.465,538.974,0.0
53617.0,STARLINK-4601,PAYLOAD,2023-02-16 11:29:29,15.08840511,0.0001018,53.2132,209.5067,88.3992,271.7117,-1.0416e-05,-4.54e-06,0.0,0 STARLINK-4601,1 53617U 22104AF  23047.47881924 -.00000454  00000-0 -10416-4 0  9991,2 53617  53.2132 209.5067 0001018  88.3992 271.7117 15.08840511 26409,6917.879,95.438,540.448,539.04,0.0
53617.0,STARLINK-4601,PAYLOAD,2023-02-16 19:26:25,15.08844973,9.52e-05,53.2136,208.0181,84.5082,275.6019,4.5412e-05,4.35e-06,0.0,0 STARLINK-4601,1 53617U 22104AF  23047.81001356  .00000435  00000-0  45412-4 0  9993,2 53617  53.2136 208.0181 0000952  84.5082 275.6019 15.08844973 27027,6917.865,95.437,540.389,539.072,0.0
53617.0,STARLINK-4601,PAYLOAD,2023-02-17 11:20:17,15.08833343,0.0001068,53.2159,205.0454,80.8178,279.2935,-6.5023e-05,-1.322e-05,0.0,0 STARLINK-4601,1 53617U 22104AF  23048.47242796 -.00001322  00000-0 -65023-4 0  9999,2 53617  53.2159 205.0454 0001068  80.8178 279.2935 15.08833343 26559,6917.901,95.438,540.505,539.027,0.0
53617.0,STARLINK-4601,PAYLOAD,2023-02-18 11:11:04,15.08835125,0.0001418,53.2164,200.5851,106.2097,253.9051,0.00032919,4.954e-05,0.0,0 STARLINK-4601,1 53617U 22104AF  23049.46601871  .00004954  00000-0  32919-3 0  9991,2 53617  53.2164 200.5851 0001418 106.2097 253.9051 15.08835125 26703,6917.895,95.438,540.741,538.779,0.0
53617.0,STARLINK-4601,PAYLOAD,2023-02-19 03:04:56,15.08832385,0.0001345,53.2178,197.6123,77.7081,282.4062,8.645e-05,1.088e-05,0.0,0 STARLINK-4601,1 53617U 22104AF  23050.12843063  .00001088  00000-0  86450-4 0  9992,2 53617  53.2178 197.6123 0001345  77.7081 282.4062 15.08832385 26805,6917.904,95.438,540.699,538.838,0.0
53617.0,STARLINK-4601,PAYLOAD,2023-02-19 14:12:38,15.08835924,0.0001194,53.2167,195.5329,69.5397,290.5723,7.9949e-05,9.85e-06,0.0,0 STARLINK-4601,1 53617U 22104AF  23050.59211109  .00000985  00000-0  79949-4 0  9993,2 53617  53.2167 195.5329 0001194  69.5397 290.5723 15.08835924 27446,6917.893,95.438,540.584,538.932,0.0
53617.0,STARLINK-4601,PAYLOAD,2023-02-20 02:55:43,15.0884115,9.96e-05,53.2166,193.1536,60.8889,299.2203,0.00011848,1.598e-05,0.0,0 STARLINK-4601,1 53617U 22104AF  23051.12202635  .00001598  00000-0  11848-3 0  9991,2 53617  53.2166 193.1536 0000996  60.8889 299.2203 15.08841150 26950,6917.877,95.437,540.431,539.053,0.0
53617.0,STARLINK-4601,PAYLOAD,2023-02-21 12:18:48,15.08841582,0.0001298,53.2169,186.9084,82.1022,278.0118,8.1994e-05,1.017e-05,0.0,0 STARLINK-4601,1 53617U 22104AF  23052.51306438  .00001017  00000-0  81994-4 0  9997,2 53617  53.2169 186.9084 0001298  82.1022 278.0118 15.08841582 27166,6917.876,95.437,540.638,538.843,0.0
53617.0,STARLINK-4601,PAYLOAD,2023-02-21 18:40:20,15.08853516,0.0001221,53.2162,185.7168,86.9212,273.192,9.3682e-05,1.204e-05,0.0,0 STARLINK-4601,1 53617U 22104AF  23052.77801460  .00001204  00000-0  93682-4 0  9995,2 53617  53.2162 185.7168 0001221  86.9212 273.1920 15.08853516 27200,6917.839,95.437,540.549,538.859,0.0
53617.0,STARLINK-4601,PAYLOAD,2023-02-22 08:58:49,15.0883586,0.0001225,53.2157,183.0428,95.3174,264.7958,-4.7451e-05,-1.043e-05,0.0,0 STARLINK-4601,1 53617U 22104AF  23053.37418872 -.00001043  00000-0 -47451-4 0  9999,2 53617  53.2157 183.0428 0001225  95.3174 264.7958 15.08835860 27297,6917.893,95.438,540.605,538.911,0.0
53617.0,STARLINK-4601,PAYLOAD,2023-02-22 12:09:36,15.08837486,0.0001234,53.2156,182.4482,97.9636,262.1497,-3.3625e-05,-8.23e-06,0.0,0 STARLINK-4601,1 53617U 22104AF  23053.50666693 -.00000823  00000-0 -33625-4 0  9993,2 53617  53.2156 182.4482 0001234  97.9636 262.1497 15.08837486 27881,6917.888,95.438,540.607,538.899,0.0
53617.0,STARLINK-4601,PAYLOAD,2023-02-22 20:06:31,15.08846599,0.0001419,53.2153,180.9588,102.6985,257.4166,-1.279e-05,-4.92e-06,0.0,0 STARLINK-4601,1 53617U 22104AF  23053.83785900 -.00000492  00000-0 -12790-4 0  9994,2 53617  53.2153 180.9588 0001419 102.6985 257.4166 15.08846599 27935,6917.86,95.437,540.707,538.744,0.0
53617.0,STARLINK-4601,PAYLOAD,2023-02-23 12:00:23,15.08838997,0.0001084,53.2191,177.9858,82.6495,277.4621,-8.9615e-05,-1.714e-05,0.0,0 STARLINK-4601,1 53617U 22104AF  23054.50026941 -.00001714  00000-0 -89615-4 0  9990,2 53617  53.2191 177.9858 0001084  82.6495 277.4621 15.08838997 27463,6917.883,95.438,540.498,538.999,0.0
53617.0,STARLINK-4601,PAYLOAD,2023-02-23 19:57:17,15.08852663,0.0001064,53.217,176.4981,116.8445,243.2656,4.9554e-05,5.01e-06,0.0,0 STARLINK-4601,1 53617U 22104AF  23054.83145450  .00000501  00000-0  49554-4 0  9992,2 53617  53.2170 176.4981 0001064 116.8445 243.2656 15.08852663 27515,6917.842,95.437,540.443,538.971,0.0
53617.0,STARLINK-4601,PAYLOAD,2023-02-24 00:43:29,15.08818055,6.83e-05,53.2178,175.6091,107.7044,252.4023,-0.00031197,-5.246e-05,0.0,0 STARLINK-4601,1 53617U 22104AF  23055.03020517 -.00005246  00000-0 -31197-3 0  9997,2 53617  53.2178 175.6091 0000683 107.7044 252.4023 15.08818055 27546,6917.947,95.439,540.285,539.34,0.0
53617.0,STARLINK-4601,PAYLOAD,2023-02-24 11:51:12,15.0881604,0.0001032,53.2173,173.5257,115.7565,244.3533,-9.4286e-05,-1.787e-05,0.0,0 STARLINK-4601,1 53617U 22104AF  23055.49389003 -.00001787  00000-0 -94286-4 0  9990,2 53617  53.2173 173.5257 0001032 115.7565 244.3533 15.08816040 28187,6917.954,95.439,540.533,539.105,0.0
53617.0,STARLINK-4601,PAYLOAD,2023-02-24 16:37:21,15.08823053,9.85e-05,53.2169,172.6343,98.0435,262.0669,-6.255e-06,-3.87e-06,0.0,0 STARLINK-4601,1 53617U 22104AF  23055.69260641 -.00000387  00000-0 -62550-5 0  9993,2 53617  53.2169 172.6343 0000985  98.0435 262.0669 15.08823053 27642,6917.932,95.439,540.479,539.116,0.0
53617.0,STARLINK-4601,PAYLOAD,2023-02-25 06:55:49,15.08831372,8.47e-05,53.2174,169.9583,87.2182,272.8907,0.00022306,3.263e-05,0.0,0 STARLINK-4601,1 53617U 22104AF  23056.28876289  .00003263  00000-0  22306-3 0  9997,2 53617  53.2174 169.9583 0000847  87.2182 272.8907 15.08831372 27736,6917.907,95.438,540.358,539.186,0.0
53617.0,STARLINK-4601,PAYLOAD,2023-02-25 11:41:58,15.08845501,8.7e-05,53.2168,169.0673,93.9522,266.157,0.0004793,7.35e-05,0.0,0 STARLINK-4601,1 53617U 22104AF  23056.48747949  .00007350  00000-0  47930-3 0  9990,2 53617  53.2168 169.0673 0000870  93.9522 266.1570 15.08845501 27762,6917.864,95.437,540.33,539.127,0.0
53617.0,STARLINK-4601,PAYLOAD,2023-02-25 13:17:21,15.08850204,7.94e-05,53.2163,168.7699,97.2659,262.8423,0.00096632,0.00015129,0.0,0 STARLINK-4601,1 53617U 22104AF  23056.55372142  .00015129  00000-0  96632-3 0  9993,2 53617  53.2163 168.7699 0000794  97.2659 262.8423 15.08850204 28345,6917.849,95.437,540.263,539.165,0.0
53617.0,STARLINK-4601,PAYLOAD,2023-02-25 16:28:07,15.0886671,7.98e-05,53.2158,168.1758,85.0631,275.0453,0.0015301,0.00024165,0.0,0 STARLINK-4601,1 53617U 22104AF  23056.68619910  .00024165  00000-0  15301-2 0  9997,2 53617  53.2158 168.1758 0000798  85.0631 275.0453 15.08866710 27794,6917.799,95.436,540.216,539.112,0.0
53617.0,STARLINK-4601,PAYLOAD,2023-02-26 00:25:03,15.08865876,7.46e-05,53.2159,166.6881,95.4196,264.6881,0.0011955,0.00018803,0.0,0 STARLINK-4601,1 53617U 22104AF  23057.01739625  .00018803  00000-0  11955-2 0  9994,2 53617  53.2159 166.6881 0000746  95.4196 264.6881 15.08865876 27846,6917.801,95.436,540.182,539.15,0.0
